0 PEGASUS DEB
1 24129U 94029GC  13282.07060454  .00000836  00000-0  23336-3 0   543
2 24129 081.4867 027.2293 0612201 048.7960 062.0364 13.70863817861881
0 PEGASUS DEB
1 24129U 94029GC  13283.29518997  .00000824  00000-0  23032-3 0   559
2 24129 081.4868 026.1356 0612129 045.5077 345.4907 13.70867914862056
0 PEGASUS DEB
1 24129U 94029GC  13286.36724309  .00000843  00000-0  23603-3 0   573
2 24129 081.4871 023.3924 0611966 037.2552 026.4543 13.70871652862476
0 PEGASUS DEB
1 24129U 94029GC  13287.76460596  .00001160  00000-0  32758-3 0   588
2 24129 081.4871 022.1446 0611914 033.5015 082.6290 13.70874849862663
0 PEGASUS DEB
1 24129U 94029GC  13289.00495637  .00001251  00000-0  35383-3 0   590
2 24129 081.4870 021.0371 0611837 030.1655 083.9447 13.70879003862838
0 PEGASUS DEB
1 24129U 94029GC  13290.22866620  .00001202  00000-0  34009-3 0   602
2 24129 081.4867 019.9443 0611763 026.8791 003.1477 13.70880911863008
0 PEGASUS DEB
1 24129U 94029GC  13291.32437138  .00001099  00000-0  31057-3 0   617
2 24129 081.4866 018.9657 0611698 023.9396 010.6309 13.70882619863159
0 PEGASUS DEB
1 24129U 94029GC  13292.35267773  .00001096  00000-0  30999-3 0   629
2 24129 081.4867 018.0477 0611649 021.1783 045.5014 13.70884033863294
0 PEGASUS DEB
1 24129U 94029GC  13293.74829468  .00001244  00000-0  35264-3 0   634
2 24129 081.4865 016.8011 0611584 017.4063 093.1480 13.70886317863483
0 PEGASUS DEB
1 24129U 94029GC  13295.34459973  .00001351  00000-0  38395-3 0   640
2 24129 081.4865 015.3754 0611476 013.1101 051.2326 13.70891332863709
